STARLINK-2022           
1 47643U 21012Z   24180.53671932 -.00005670  00000+0 -36214-3 0  9999
2 47643  53.0541 311.0994 0001087  72.9430 287.1677 15.06392220186421
